ONEWEB-0144             
1 47290U 20100AJ  25104.15151674  .00000242  00000+0  63671-3 0  9990
2 47290  87.8836  76.0061 0001668  89.5338 270.5982 13.12442619208298
ONEWEB-0145             
1 47291U 20100AK  25104.35101927  .00000132  00000+0  33052-3 0  9997
2 47291  87.8836  75.9915 0001866  86.1884 273.9458 13.12442678208519
ONEWEB-0146             
1 47292U 20100AL  25104.19528054 -.00000085  00000+0 -27287-3 0  9996
2 47292  87.8837  76.0086 0002294  79.0133 281.1253 13.12442546208402
ONEWEB-0147             
1 47293U 20100AM  25104.61865283  .00000011  00000+0 -45161-5 0  9993
2 47293  87.8833  75.9067 0001706  78.4237 281.7083 13.12442713208358
ONEWEB-0115             
1 48042U 21025A   25104.75291540  .00000275  00000+0  71820-3 0  9997
2 48042  87.8973  45.3597 0001955  78.2198 281.9150 13.13471240197368
ONEWEB-0152             
1 48043U 21025B   25103.85233008 -.00000251  00000+0 -72296-3 0  9997
2 48043  87.8977  45.5492 0002055  76.8358 283.3001 13.13467545197198
ONEWEB-0153             
1 48044U 21025C   25104.74445539  .00000352  00000+0  92840-3 0  9998
2 48044  87.8979  45.3674 0001873  80.9843 279.1498 13.13472682197318
ONEWEB-0154             
1 48045U 21025D   25104.74106093  .00000122  00000+0  30017-3 0  9991
2 48045  87.8975  45.3700 0001907  78.8090 281.3254 13.13472474197272
